{"type": "FeatureCollection", "features": [ {"type": "Feature", "properties": {"norad_id": 35885, "name": "COSMOS 2251 DEB", "group": "cosmos-2251-debris", "lat": -36.27588142024277, "lon": 123.72677764065871, "alt_km": 787.5467533244264, "timestamp": "2025-12-14T11:29:50.457117+00:00", "meta": {"OBJECT_NAME": "COSMOS 2251 DEB", "OBJECT_ID": "1993-036ATY", "EPOCH": "2025-12-13T12:46:26.419872", "MEAN_MOTION": 14.37522358, "ECCENTRICITY": 0.00232582, "INCLINATION": 74.0285, "RA_OF_ASC_NODE": 293.3358, "ARG_OF_PERICENTER": 13.5954, "MEAN_ANOMALY": 346.5821, "EPHEMERIS_TYPE": 0, "CLASSIFICATION_TYPE": "U", "NORAD_CAT_ID": 35885, "ELEMENT_SET_NO": 999, "REV_AT_EPOCH": 65027, "BSTAR": 0.00047052352, "MEAN_MOTION_DOT": 1.388e-05, "MEAN_MOTION_DDOT": 0}, "tle": {"line1": "1 35885U 93036ATY 25347.53225023  .00001388  00000+0  47052-3 0  9993", "line2": "2 35885  74.0285 293.3358 0023258  13.5954 346.5821 14.37522358650276"}}, "geometry": {"type": "Point", "coordinates": [123.72677764065871, -36.27588142024277]}}, {"type": "Feature", "properties": {"norad_id": 35888, "name": "COSMOS 2251 DEB", "group": "cosmos-2251-debris", "lat": -54.61028118223402, "lon": -30.40826346363805, "alt_km": 739.3331735119264, "timestamp": "2025-12-14T11:29:50.457130+00:00", "meta": {"OBJECT_NAME": "COSMOS 2251 DEB", "OBJECT_ID": "1993-036AUB", "EPOCH": "2025-12-12T07:04:48.029376", "MEAN_MOTION": 14.58316356, "ECCENTRICITY": 0.00482275, "INCLINATION": 74.0337, "RA_OF_ASC_NODE": 357.5138, "ARG_OF_PERICENTER": 129.7983, "MEAN_ANOMALY": 230.7443, "EPHEMERIS_TYPE": 0, "CLASSIFICATION_TYPE": "U", "NORAD_CAT_ID": 35888, "ELEMENT_SET_NO": 999, "REV_AT_EPOCH": 86267, "BSTAR": 0.00060064021, "MEAN_MOTION_DOT": 2.795e-05, "MEAN_MOTION_DDOT": 0}, "tle": {"line1": "1 35888U 93036AUB 25346.29500034  .00002795  00000+0  60064-3 0  9997", "line2": "2 35888  74.0337 357.5138 0048227 129.7983 230.7443 14.58316356862676"}}, "geometry": {"type": "Point", "coordinates": [-30.40826346363805, -54.61028118223402]}}, {"type": "Feature", "properties": {"norad_id": 35890, "name": "COSMOS 2251 DEB", "group": "cosmos-2251-debris", "lat": -20.410720513492517, "lon": -126.77998958507439, "alt_km": 671.4233704464332, "timestamp": "2025-12-14T11:29:50.457145+00:00", "meta": {"OBJECT_NAME": "COSMOS 2251 DEB", "OBJECT_ID": "1993-036AUD", "EPOCH": "2025-12-13T10:53:03.299424", "MEAN_MOTION": 14.57503186, "ECCENTRICITY": 0.00538039, "INCLINATION": 73.9362, "RA_OF_ASC_NODE": 241.3354, "ARG_OF_PERICENTER": 5.8757, "MEAN_ANOMALY": 354.3025, "EPHEMERIS_TYPE": 0, "CLASSIFICATION_TYPE": "U", "NORAD_CAT_ID": 35890, "ELEMENT_SET_NO": 999, "REV_AT_EPOCH": 65161, "BSTAR": 0.0029822973, "MEAN_MOTION_DOT": 0.00013825, "MEAN_MOTION_DDOT": 0}, "tle": {"line1": "1 35890U 93036AUD 25347.45351041  .00013825  00000+0  29823-2 0  9994", "line2": "2 35890  73.9362 241.3354 0053803   5.8757 354.3025 14.57503186651611"}}, "geometry": {"type": "Point", "coordinates": [-126.77998958507439, -20.410720513492517]}}, {"type": "Feature", "properties": {"norad_id": 35891, "name": "COSMOS 2251 DEB", "group": "cosmos-2251-debris", "lat": -9.326474536588476, "lon": 87.44107753340914, "alt_km": 488.2543317731279, "timestamp": "2025-12-14T11:29:50.457155+00:00", "meta": {"OBJECT_NAME": "COSMOS 2251 DEB", "OBJECT_ID": "1993-036AUE", "EPOCH": "2025-12-12T23:31:35.861952", "MEAN_MOTION": 15.33352498, "ECCENTRICITY": 0.00436495, "INCLINATION": 73.9891, "RA_OF_ASC_NODE": 93.3587, "ARG_OF_PERICENTER": 223.8568, "MEAN_ANOMALY": 135.9169, "EPHEMERIS_TYPE": 0, "CLASSIFICATION_TYPE": "U", "NORAD_CAT_ID": 35891, "ELEMENT_SET_NO": 999, "REV_AT_EPOCH": 67224, "BSTAR": 0.0018817485, "MEAN_MOTION_DOT": 0.00063011, "MEAN_MOTION_DDOT": 0}, "tle": {"line1": "1 35891U 93036AUE 25346.98027618  .00063011  00000+0  18817-2 0  9995", "line2": "2 35891  73.9891  93.3587 0043649 223.8568 135.9169 15.33352498672248"}}, "geometry": {"type": "Point", "coordinates": [87.44107753340914, -9.326474536588476]}}, {"type": "Feature", "properties": {"norad_id": 35895, "name": "COSMOS 2251 DEB", "group": "cosmos-2251-debris", "lat": -22.32907972832321, "lon": 171.39507189127178, "alt_km": 964.9184897704863, "timestamp": "2025-12-14T11:29:50.457165+00:00", "meta": {"OBJECT_NAME": "COSMOS 2251 DEB", "OBJECT_ID": "1993-036AUJ", "EPOCH": "2025-12-11T07:10:31.732032", "MEAN_MOTION": 14.01513994, "ECCENTRICITY": 0.01987879, "INCLINATION": 74.0502, "RA_OF_ASC_NODE": 350.1634, "ARG_OF_PERICENTER": 88.7843, "MEAN_ANOMALY": 273.6056, "EPHEMERIS_TYPE": 0, "CLASSIFICATION_TYPE": "U", "NORAD_CAT_ID": 35895, "ELEMENT_SET_NO": 999, "REV_AT_EPOCH": 58992, "BSTAR": 0.0020881347, "MEAN_MOTION_DOT": 3.73e-05, "MEAN_MOTION_DDOT": 0}, "tle": {"line1": "1 35895U 93036AUJ 25345.29897838  .00003730  00000+0  20881-2 0  9997", "line2": "2 35895  74.0502 350.1634 0198787  88.7843 273.6056 14.01513994589929"}}, "geometry": {"type": "Point", "coordinates": [171.39507189127178, -22.32907972832321]}}, {"type": "Feature", "properties": {"norad_id": 35898, "name": "COSMOS 2251 DEB", "group": "cosmos-2251-debris", "lat": -65.83518021989826, "lon": -105.84138866034901, "alt_km": 636.9886028922665, "timestamp": "2025-12-14T11:29:50.457175+00:00", "meta": {"OBJECT_NAME": "COSMOS 2251 DEB", "OBJECT_ID": "1993-036AUM", "EPOCH": "2025-12-11T03:33:58.696128", "MEAN_MOTION": 14.94658859, "ECCENTRICITY": 0.00792199, "INCLINATION": 73.9916, "RA_OF_ASC_NODE": 300.6702, "ARG_OF_PERICENTER": 84.5945, "MEAN_ANOMALY": 290.8859, "EPHEMERIS_TYPE": 0, "CLASSIFICATION_TYPE": "U", "NORAD_CAT_ID": 35898, "ELEMENT_SET_NO": 999, "REV_AT_EPOCH": 66786, "BSTAR": 0.001087469, "MEAN_MOTION_DOT": 0.00012532, "MEAN_MOTION_DDOT": 0}, "tle": {"line1": "1 35898U 93036AUM 25345.14859602  .00012532  00000+0  10875-2 0  9993", "line2": "2 35898  73.9916 300.6702 0079219  84.5945 290.8859 14.94658859667864"}}, "geometry": {"type": "Point", "coordinates": [-105.84138866034901, -65.83518021989826]}}, {"type": "Feature", "properties": {"norad_id": 35901, "name": "COSMOS 2251 DEB", "group": "cosmos-2251-debris", "lat": 10.195220916821441, "lon": 22.251230179966054, "alt_km": 541.573245760771, "timestamp": "2025-12-14T11:29:50.457187+00:00", "meta": {"OBJECT_NAME": "COSMOS 2251 DEB", "OBJECT_ID": "1993-036AUQ", "EPOCH": "2025-12-07T10:36:21.692736", "MEAN_MOTION": 15.06319673, "ECCENTRICITY": 0.00066034, "INCLINATION": 74.0121, "RA_OF_ASC_NODE": 33.7639, "ARG_OF_PERICENTER": 0.5644, "MEAN_ANOMALY": 13.1472, "EPHEMERIS_TYPE": 0, "CLASSIFICATION_TYPE": "U", "NORAD_CAT_ID": 35901, "ELEMENT_SET_NO": 999, "REV_AT_EPOCH": 86047, "BSTAR": 0.0047775116, "MEAN_MOTION_DOT": 0.0007096, "MEAN_MOTION_DDOT": 0}, "tle": {"line1": "1 35901U 93036AUQ 25341.44191774  .00070960  00000+0  47775-2 0  9994", "line2": "2 35901  74.0121  33.7639 0006603   0.5644  13.1472 15.06319673860474"}}, "geometry": {"type": "Point", "coordinates": [22.251230179966054, 10.195220916821441]}}, {"type": "Feature", "properties": {"norad_id": 35902, "name": "COSMOS 2251 DEB", "group": "cosmos-2251-debris", "lat": 24.124711834991682, "lon": 44.03512879232972, "alt_km": 872.9690418710952, "timestamp": "2025-12-14T11:29:50.457197+00:00", "meta": {"OBJECT_NAME": "COSMOS 2251 DEB", "OBJECT_ID": "1993-036AUR", "EPOCH": "2025-12-12T01:33:56.017152", "MEAN_MOTION": 14.26898947, "ECCENTRICITY": 0.01020569, "INCLINATION": 73.9828, "RA_OF_ASC_NODE": 235.8058, "ARG_OF_PERICENTER": 350.6999, "MEAN_ANOMALY": 9.2255, "EPHEMERIS_TYPE": 0, "CLASSIFICATION_TYPE": "U", "NORAD_CAT_ID": 35902, "ELEMENT_SET_NO": 999, "REV_AT_EPOCH": 61120, "BSTAR": 0.0016300387, "MEAN_MOTION_DOT": 4.159e-05, "MEAN_MOTION_DDOT": 0}, "tle": {"line1": "1 35902U 93036AUR 25346.06523168  .00004159  00000+0  16300-2 0  9991", "line2": "2 35902  73.9828 235.8058 0102056 350.6999   9.2255 14.26898947611205"}}, "geometry": {"type": "Point", "coordinates": [44.03512879232972, 24.124711834991682]}}, {"type": "Feature", "properties": {"norad_id": 35905, "name": "COSMOS 2251 DEB", "group": "cosmos-2251-debris", "lat": -16.896089140579846, "lon": 32.2722798600333, "alt_km": 573.119596839867, "timestamp": "2025-12-14T11:29:50.457207+00:00", "meta": {"OBJECT_NAME": "COSMOS 2251 DEB", "OBJECT_ID": "1993-036AUU", "EPOCH": "2025-12-12T21:46:16.127040", "MEAN_MOTION": 14.99027682, "ECCENTRICITY": 0.00908923, "INCLINATION": 74.032, "RA_OF_ASC_NODE": 210.4725, "ARG_OF_PERICENTER": 290.4597, "MEAN_ANOMALY": 68.6848, "EPHEMERIS_TYPE": 0, "CLASSIFICATION_TYPE": "U", "NORAD_CAT_ID": 35905, "ELEMENT_SET_NO": 999, "REV_AT_EPOCH": 88585, "BSTAR": 0.00081105566, "MEAN_MOTION_DOT": 0.00010695, "MEAN_MOTION_DDOT": 0}, "tle": {"line1": "1 35905U 93036AUU 25346.90713110  .00010695  00000+0  81106-3 0  9994", "line2": "2 35905  74.0320 210.4725 0090892 290.4597  68.6848 14.99027682885857"}}, "geometry": {"type": "Point", "coordinates": [32.2722798600333, -16.896089140579846]}}, {"type": "Feature", "properties": {"norad_id": 35959, "name": "COSMOS 2251 DEB", "group": "cosmos-2251-debris", "lat": -68.79135331272208, "lon": -98.66721775735019, "alt_km": 788.7455219197118, "timestamp": "2025-12-14T11:29:50.457217+00:00", "meta": {"OBJECT_NAME": "COSMOS 2251 DEB", "OBJECT_ID": "1993-036AUZ", "EPOCH": "2025-12-13T07:23:22.047648", "MEAN_MOTION": 14.34136813, "ECCENTRICITY": 0.00215686, "INCLINATION": 74.0325, "RA_OF_ASC_NODE": 311.0234, "ARG_OF_PERICENTER": 31.3363, "MEAN_ANOMALY": 328.9069, "EPHEMERIS_TYPE": 0, "CLASSIFICATION_TYPE": "U", "NORAD_CAT_ID": 35959, "ELEMENT_SET_NO": 999, "REV_AT_EPOCH": 84936, "BSTAR": 0.00020716976, "MEAN_MOTION_DOT": 5.55e-06, "MEAN_MOTION_DDOT": 0}, "tle": {"line1": "1 35959U 93036AUZ 25347.30789407  .00000555  00000+0  20717-3 0  9995", "line2": "2 35959  74.0325 311.0234 0021568  31.3363 328.9069 14.34136813849360"}}, "geometry": {"type": "Point", "coordinates": [-98.66721775735019, -68.79135331272208]}}]}